OBJECT_NAME,OBJECT_ID,EPOCH,MEAN_MOTION,ECCENTRICITY,INCLINATION,RA_OF_ASC_NODE,ARG_OF_PERICENTER,MEAN_ANOMALY,EPHEMERIS_TYPE,CLASSIFICATION_TYPE,NORAD_CAT_ID,ELEMENT_SET_NO,REV_AT_EPOCH,BSTAR,MEAN_MOTION_DOT,MEAN_MOTION_DDOT
SL-8 R/B,1991-006B,2026-06-25T20:28:21.931104,13.77506610,.0023885,82.9426,89.5874,91.6871,333.2649,0,U,21088,999,77896,.29721E-4,.45E-6,0
OKEAN-3,1991-039A,2026-06-26T04:17:26.045088,15.05366574,.0013022,82.5166,231.6629,324.4683,35.5675,0,U,21397,999,88135,.16257E-3,.236E-4,0
COSMOS 2151,1991-042A,2026-06-26T04:42:18.497088,15.00462150,.0013521,82.4964,338.9857,56.8388,303.4131,0,U,21422,999,87946,.13925E-3,.1782E-4,0
SL-14 R/B,1991-042B,2026-06-25T22:20:24.101664,14.81907511,.0015527,82.4935,118.6964,243.1637,116.7990,0,U,21423,999,86910,.39437E-4,.336E-5,0
ERS-1,1991-050A,2026-06-26T01:28:57.150912,14.39521981,.0030841,98.7795,197.9767,239.6462,120.1674,0,U,21574,999,83132,.9984E-4,.266E-5,0
ARIANE 40 R/B,1991-050F,2026-06-26T03:11:22.434720,14.42961738,.0004461,98.1871,225.2012,102.0517,258.1174,0,U,21610,999,83463,.86998E-4,.25E-5,0
INTERCOSMOS 25,1991-086A,2026-06-26T04:34:57.254016,12.12211109,.1483969,82.6041,244.3614,242.9507,101.2683,0,U,21819,999,50983,.17984E-3,.905E-5,0
SL-8 R/B,1992-008B,2026-06-26T03:27:28.020384,13.75979301,.0034404,82.9259,187.1278,189.2790,238.6536,0,U,21876,999,72433,.14695E-3,.158E-5,0
SL-8 R/B,1992-020B,2026-06-26T03:45:24.694848,13.75549781,.002909,82.9304,73.1953,357.9182,113.0363,0,U,21938,999,71604,.46771E-4,.6E-6,0
USA 81,1992-023A,2026-06-26T03:31:05.121120,14.32400380,.0002657,85.0071,68.8365,77.2493,282.8996,0,U,21949,999,11031,.47839E-4,.149E-5,0
COSMOS 2219,1992-076A,2026-06-26T04:10:57.278784,14.14105578,.0017045,71.0596,151.2840,28.9758,331.2306,0,U,22219,999,73371,.19057E-3,.316E-5,0
SL-16 R/B,1992-076B,2026-06-25T20:45:31.038912,14.16875707,.0014969,71.0013,320.5003,287.2799,185.7093,0,U,22220,999,73715,.45016E-5,-.39E-6,0
COSMOS 2221,1992-080A,2026-06-26T02:21:58.442112,14.96554352,.0014075,82.5031,175.2265,181.1857,178.9335,0,U,22236,999,79700,.12075E-3,.1402E-4,0
SL-16 R/B,1992-093B,2026-06-26T03:31:24.301920,14.15460668,.0003501,71.0204,136.5822,171.2472,188.8712,0,U,22285,999,72850,.10792E-3,.163E-5,0
COSMOS 2228,1992-094A,2026-06-26T04:11:20.973984,14.97617411,.0016165,82.5178,133.4342,299.7735,60.1880,0,U,22286,999,79229,.1772E-3,.2102E-4,0
SL-16 R/B,1993-016B,2026-06-25T21:58:42.699072,14.15315820,.0009607,71.0088,347.8732,171.2432,188.8860,0,U,22566,999,71748,-.41441E-4,-.128E-5,0
COSMOS 2242,1993-024A,2026-06-26T04:55:07.627296,14.96929086,.0014685,82.5182,162.9150,303.8475,56.1349,0,U,22626,999,79662,.14223E-3,.1662E-4,0
SL-16 R/B,1993-059B,2026-06-26T04:06:39.857760,14.17247218,.0015612,70.9891,142.3577,39.0330,321.1917,0,U,22803,999,69490,.40487E-4,.34E-6,0
ARIANE 40 R/B,1993-061H,2026-06-25T19:03:43.365024,14.32911069,.0009933,98.4816,243.4724,329.9128,30.1485,0,U,22830,999,70958,.75062E-4,.162E-5,0
COSMOS 2278,1994-023A,2026-06-25T19:18:16.292736,14.14398496,.0010477,71.0552,308.8955,233.5172,126.4986,0,U,23087,999,66009,-.46878E-4,-.137E-5,0
SL-16 R/B,1994-023B,2026-06-26T03:44:15.592992,14.15027650,.0002132,70.9986,203.0966,179.7167,180.3957,0,U,23088,999,66143,-.1328E-4,-.73E-6,0
SL-16 R/B,1994-074B,2026-06-26T00:09:05.736096,14.79509135,.000556,97.6988,203.3598,218.0611,199.1833,0,U,23343,999,70326,.58767E-4,.39E-5,0
SL-16 R/B,1994-077B,2026-06-26T03:58:35.794848,14.15576988,.000341,70.9827,124.2734,320.1618,39.9254,0,U,23405,999,63158,.11417E-3,.176E-5,0
ARIANE 40+ R/B,1995-021B,2026-06-26T03:45:10.672992,14.39837851,.0007026,98.4408,247.1017,166.9741,246.3819,0,U,23561,999,63485,.85229E-4,.224E-5,0
SL-16 R/B,1995-058B,2026-06-25T19:47:21.673824,14.15512019,.001432,71.0229,313.2231,308.5505,51.4334,0,U,23705,999,58315,.52604E-5,-.37E-6,0
SL-16 R/B,1996-051B,2026-06-25T19:30:41.808096,14.12448848,.0016206,70.7650,306.3931,324.3969,35.6069,0,U,24298,999,53691,.90524E-4,.118E-5,0
ORBVIEW 2 (SEASTAR),1997-037A,2026-06-26T01:56:26.443104,14.35557564,.0003328,98.8694,344.3466,98.5867,261.5694,0,U,24883,999,52402,.98961E-4,.238E-5,0
SL-16 R/B,1998-043G,2026-06-25T20:27:42.848928,14.26069930,.0010867,98.8367,131.0865,63.8391,296.3904,0,U,25400,999,45440,.32941E-4,.33E-6,0
SL-16 R/B,1998-045B,2026-06-25T18:46:42.968064,14.16203221,.0008991,71.0120,314.2524,230.4733,129.5596,0,U,25407,999,44240,.12315E-3,.196E-5,0
ISS (ZARYA),1998-067A,2026-06-26T03:43:15.671136,15.49434803,.0004359,51.6325,255.7018,233.1468,126.9121,0,U,25544,999,57314,.17697E-3,.9461E-4,0
CZ-4B R/B,1999-025C,2026-06-26T02:18:32.353056,14.18284810,.0037719,98.6480,218.7104,34.5785,19.4363,0,U,25732,999,40353,.44934E-4,.5E-6,0
OKEAN-O,1999-039A,2026-06-26T03:12:47.124864,14.80477261,.0001325,97.9313,235.8290,70.1246,290.0109,0,U,25860,999,45043,.80884E-4,.567E-5,0
SL-16 R/B,1999-039B,2026-06-26T03:32:09.934080,14.81853160,.0013379,97.9834,235.9848,264.8931,95.0755,0,U,25861,999,45292,.65153E-4,.462E-5,0
DELTA 2 R/B,1999-041E,2026-06-25T12:39:45.760608,14.12028352,.050095,51.7634,230.4786,306.6703,48.9164,0,U,25876,999,37826,.17155E-3,.83E-5,0
HELIOS 1B,1999-064A,2026-06-25T17:14:54.688992,14.88027682,.0002521,98.1609,82.1051,79.8105,280.3395,0,U,25977,999,70132,.15168E-3,.1334E-4,0
TERRA,1999-068A,2026-06-26T04:32:47.082048,14.61109674,.0002293,97.9451,226.3786,163.3171,233.0500,0,U,25994,999,41092,.84279E-4,.37E-5,0
SL-16 R/B,2000-006B,2026-06-26T04:17:57.321024,14.15838072,.0016098,71.0014,229.7184,8.9638,351.1769,0,U,26070,999,36391,.17647E-3,.3E-5,0
TITAN 4B R/B,2000-047B,2026-06-26T03:12:28.866816,15.10244426,.004593,67.9892,95.3902,277.9609,81.6329,0,U,26474,999,40928,.189E-3,.3036E-4,0
ENVISAT,2002-009A,2026-06-25T20:43:28.648128,14.39066657,.0001413,98.3837,127.9886,87.6710,295.5526,0,U,27386,999,27473,.36794E-4,.71E-6,0
IDEFIX & ARIANE 42P R/B,2002-021B,2026-06-25T19:10:58.615392,14.31085656,.0010791,98.5942,114.1891,225.7728,134.2569,0,U,27422,999,25948,.8286E-4,.175E-5,0
AQUA,2002-022A,2026-06-26T05:21:43.273728,14.62170836,.0000792,98.4280,146.6869,65.7405,351.9250,0,U,27424,999,28459,.16026E-3,.757E-5,0
CZ-4B R/B,2002-024C,2026-06-26T00:16:55.802208,14.14565486,.0051191,98.8696,229.7745,75.7001,348.3936,0,U,27432,999,24455,.32129E-4,.19E-6,0
MIDORI II (ADEOS-II),2002-056A,2026-06-25T21:19:04.876896,14.29353932,.0002103,98.7882,136.2222,65.7989,294.3412,0,U,27597,999,22575,.10699E-3,.227E-5,0
H-2A R/B,2002-056E,2026-06-25T20:49:02.354304,14.33825544,.0069643,98.3315,133.2256,198.3875,186.7133,0,U,27601,999,22961,.7884E-4,.183E-5,0
CZ-4B R/B,2003-049C,2026-06-25T23:08:29.023584,14.55105297,.0046891,98.6898,176.1602,261.1128,98.4758,0,U,28059,999,20234,.72716E-4,.266E-5,0
CZ-2C R/B,2004-012C,2026-06-26T03:42:46.353024,15.80721676,.0010483,97.7081,253.8715,249.5136,110.5006,0,U,28222,999,22131,.58519E-3,.113336E-2,0
SL-16 R/B,2004-021B,2026-06-25T20:36:46.774080,14.14607186,.0006899,71.0005,5.4893,243.5535,116.4880,0,U,28353,999,13813,.63114E-4,.74E-6,0
CZ-4B R/B,2004-035C,2026-06-26T03:41:46.621248,15.30745683,.0029073,97.3365,210.1264,304.5550,55.2948,0,U,28415,999,19649,.28336E-3,.8452E-4,0
CZ-2C R/B,2004-046B,2026-06-26T03:59:45.485952,14.27028351,.0138983,98.1939,85.3860,193.5778,166.1650,0,U,28480,999,12397,.42989E-4,.75E-6,0
ARIANE 5 R/B,2004-049H,2026-06-26T02:08:16.440288,14.85458864,.0083842,98.2726,349.6859,0.7003,359.4313,0,U,28499,999,16188,.63589E-4,.518E-5,0
CZ-2D R/B,2005-024B,2026-06-26T00:21:37.468800,15.70498789,.0001551,97.3478,196.8887,31.5849,328.5507,0,U,28738,999,15672,.50349E-3,.61899E-3,0
ALOS (DAICHI),2006-002A,2026-06-25T20:54:10.390176,14.70065996,.0001137,98.1327,132.4114,59.2586,300.8732,0,U,28931,999,8937,.17024E-3,.973E-5,0
H-2A R/B,2006-002B,2026-06-26T03:36:42.117408,15.18172776,.0049791,98.2567,333.7914,231.1202,128.5583,0,U,28932,999,11088,.38848E-3,.8118E-4,0
RESURS-DK 1,2006-021A,2026-06-26T03:46:49.384992,15.13251602,.0006743,69.9337,316.3330,287.6006,72.4424,0,U,29228,999,10393,.13662E-3,.2327E-4,0
CZ-4B R/B,2006-046C,2026-06-26T02:05:14.671104,15.17843200,.003106,97.5452,221.6664,250.2051,109.5832,0,U,29507,999,7648,.21948E-3,.4426E-4,0
CZ-2C R/B,2007-010B,2026-06-26T03:32:47.181120,14.20277930,.0058479,98.4105,285.0607,340.0128,19.8759,0,U,31114,999,99511,.42971E-4,.52E-6,0
COSMO-SKYMED 1,2007-023A,2026-06-26T03:47:23.110368,14.97146419,.0001827,97.8861,9.0892,90.6304,269.5127,0,U,31598,999,3113,.272E-3,.3082E-4,0
COSMOS 2428,2007-029A,2026-06-25T20:26:17.692224,14.12927688,.0007133,70.9372,336.2845,118.3647,241.8194,0,U,31792,999,97937,.15916E-4,-.18E-6,0
SL-16 R/B,2007-029B,2026-06-25T19:46:20.779968,14.14855103,.0002448,70.9771,305.0727,263.7165,250.8019,0,U,31793,999,98066,-.73955E-4,-.191E-5,0
KORONAS-FOTON,2009-003A,2026-06-26T04:56:31.551072,15.45897030,.0012445,82.4285,162.8499,119.3205,240.9288,0,U,33504,999,96249,.23703E-3,.11593E-3,0
CZ-2C R/B,2011-030B,2026-06-25T21:20:35.197728,14.81491224,.0052295,97.8657,132.1183,359.9422,63.4790,0,U,37731,999,80611,.15597E-3,.1196E-4,0
H-2A R/B,2012-025E,2026-06-25T22:05:25.437984,14.95754701,.004313,98.4822,152.7859,319.7871,40.0159,0,U,38341,999,76439,.23111E-3,.2553E-4,0
SHIJIAN-16 (SJ-16),2013-057A,2026-06-26T05:18:16.136640,14.92621161,.0016536,74.9730,339.5720,209.8645,150.1602,0,U,39358,999,68769,.14248E-3,.1441E-4,0
SL-4 R/B,2014-021B,2026-06-26T00:10:17.810976,15.42117038,.009082,51.6031,167.5566,138.0869,222.7114,0,U,39679,999,67297,.22408E-3,.10866E-3,0
ALOS-2,2014-029A,2026-06-26T03:13:26.938848,14.79468940,.0001603,97.9220,274.1698,89.8203,270.3193,0,U,39766,999,65290,.12723E-3,.899E-5,0
YAOGAN-29,2015-069A,2026-06-26T05:14:39.810048,14.83089687,.0002134,98.0029,205.8654,39.2284,320.9083,0,U,41038,999,57196,-.44586E-5,-.9E-6,0
ASTRO-H (HITOMI),2016-012A,2026-06-25T19:44:55.903200,15.10546457,.0009716,31.0004,18.4145,339.6483,20.3767,0,U,41337,999,56859,.15384E-3,.2698E-4,0
